NORAD_CAT_ID,OBJECT_NAME,OBJECT_TYPE,EPOCH,MEAN_MOTION,ECCENTRICITY,INCLINATION,RA_OF_ASC_NODE,ARG_OF_PERICENTER,MEAN_ANOMALY,BSTAR,MEAN_MOTION_DOT,MEAN_MOTION_DDOT,TLE_LINE0,TLE_LINE1,TLE_LINE2,SEMIMAJOR_AXIS,PERIOD,APOGEE,PERIGEE,DECAYED
47762,STARLINK-2180,PAYLOAD,2023-01-16 14:25:43,15.06411856,9.95e-05,53.0542,340.6059,75.2937,284.8162,0.00031401,4.4e-05,0.0,0 STARLINK-2180,1 47762U 21017AS  23016.60120020  .00004400  00000-0  31401-3 0  9990,2 47762  53.0542 340.6059 0000995  75.2937 284.8162 15.06411856104496,6925.312,95.591,547.866,546.488,0.0
47762,STARLINK-2180,PAYLOAD,2023-01-16 23:58:59,15.06367025,0.0001583,53.0522,338.8215,90.9195,269.1975,-0.00073108,-0.00011144,0.0,0 STARLINK-2180,1 47762U 21017AS  23016.99930060 -.00011144  00000-0 -73108-3 0  9990,2 47762  53.0522 338.8215 0001583  90.9195 269.1975 15.06367025103902,6925.45,95.594,548.411,546.2180000000001,0.0
47762,STARLINK-2180,PAYLOAD,2023-01-17 04:45:36,15.06376368,0.0001517,53.0524,337.9278,90.0198,270.0965,-0.00035793,-5.605e-05,0.0,0 STARLINK-2180,1 47762U 21017AS  23017.19834356 -.00005605  00000-0 -35793-3 0  9997,2 47762  53.0524 337.9278 0001517  90.0198 270.0965 15.06376368103937,6925.420999999999,95.594,548.337,546.235,0.0
47762,STARLINK-2180,PAYLOAD,2023-01-17 14:18:51,15.06388059,0.0001189999999999,53.0542,336.1385,84.5303,275.5821,-4.4865e-05,-9.49e-06,0.0,0 STARLINK-2180,1 47762U 21017AS  23017.59642568 -.00000949  00000-0 -44865-4 0  9990,2 47762  53.0542 336.1385 0001190  84.5303 275.5821 15.06388059104640,6925.385,95.593,548.0740000000001,546.4259999999999,0.0
47762,STARLINK-2180,PAYLOAD,2023-01-17 20:41:00,15.06387314,0.0001545,53.0523,334.9454,108.4923,251.6234,0.00013044,1.661e-05,0.0,0 STARLINK-2180,1 47762U 21017AS  23017.86181376  .00001661  00000-0  13044-3 0  9999,2 47762  53.0523 334.9454 0001545 108.4923 251.6234 15.06387314104039,6925.387,95.593,548.322,546.182,0.0
47762,STARLINK-2180,PAYLOAD,2023-01-18 06:14:14,15.06442242,0.0001506999999999,53.0522,333.161,89.8876,270.2285,0.002632,0.00039186,0.0,0 STARLINK-2180,1 47762U 21017AS  23018.25989070  .00039186  00000-0  26320-2 0  9993,2 47762  53.0522 333.1610 0001507  89.8876 270.2285 15.06442242104091,6925.219,95.589,548.128,546.04,0.0
47762,STARLINK-2180,PAYLOAD,2023-01-18 14:11:56,15.06420558,0.0001797,53.0535,331.6715,79.3886,280.7306,0.0011424,0.00016785,0.0,0 STARLINK-2180,1 47762U 21017AS  23018.59162661  .00016785  00000-0  11424-2 0  9998,2 47762  53.0535 331.6715 0001797  79.3886 280.7306 15.06420558104142,6925.286,95.591,548.395,545.906,0.0
47762,STARLINK-2180,PAYLOAD,2023-01-18 20:34:05,15.06420323,0.0001305,53.0521,330.4799,86.0029,274.1109,0.0012010999999999,0.00017664,0.0,0 STARLINK-2180,1 47762U 21017AS  23018.85700998  .00017664  00000-0  12011-2 0  9998,2 47762  53.0521 330.4799 0001305  86.0029 274.1109 15.06420323104839,6925.286,95.591,548.055,546.248,0.0
47762,STARLINK-2180,PAYLOAD,2023-01-19 06:07:19,15.06436345,0.0001357,53.0522,328.6929,82.3924,277.7219,0.0020699,0.00030715,0.0,0 STARLINK-2180,1 47762U 21017AS  23019.25508503  .00030715  00000-0  20699-2 0  9994,2 47762  53.0522 328.6929 0001357  82.3924 277.7219 15.06436345104892,6925.236999999999,95.59,548.0419999999999,546.1619999999999,0.0
47762,STARLINK-2180,PAYLOAD,2023-01-19 15:40:33,15.06411227,0.0001029,53.0527,326.9057,106.0218,254.0884,0.0015232999999999,0.00022488,0.0,0 STARLINK-2180,1 47762U 21017AS  23019.65316932  .00022488  00000-0  15233-2 0  9997,2 47762  53.0527 326.9057 0001029 106.0218 254.0884 15.06411227104300,6925.314,95.591,547.8919999999999,546.467,0.0
47762,STARLINK-2180,PAYLOAD,2023-01-20 02:49:20,15.06397901,0.0001245,53.0527,324.8207,102.4031,257.7098,0.0018297,0.00027075,0.0,0 STARLINK-2180,1 47762U 21017AS  23020.11760204  .00027075  00000-0  18297-2 0  9995,2 47762  53.0527 324.8207 0001245 102.4031 257.7098 15.06397901104373,6925.355,95.592,548.082,546.3580000000001,0.0
47762,STARLINK-2180,PAYLOAD,2023-01-20 06:00:25,15.06406332,0.0001288,53.0528,324.2252,101.9867,258.1267,0.0028308,0.00042143,0.0,0 STARLINK-2180,1 47762U 21017AS  23020.25029642  .00042143  00000-0  28308-2 0  9991,2 47762  53.0528 324.2252 0001288 101.9867 258.1267 15.06406332105043,6925.329000000001,95.592,548.086,546.302,0.0
47762,STARLINK-2180,PAYLOAD,2023-01-21 02:42:26,15.06412288,0.0001361999999999,53.0532,320.3536,102.3408,257.7733,0.0015229,0.00022482,0.0,0 STARLINK-2180,1 47762U 21017AS  23021.11280941  .00022482  00000-0  15229-2 0  9990,2 47762  53.0532 320.3536 0001362 102.3408 257.7733 15.06412288104521,6925.311,95.591,548.119,546.2330000000001,0.0
47762,STARLINK-2180,PAYLOAD,2023-01-22 02:35:32,15.06410534,0.0001628,53.0542,315.884,76.9804,283.1367,0.00084417,0.00012318,0.0,0 STARLINK-2180,1 47762U 21017AS  23022.10801021  .00012318  00000-0  84417-3 0  9991,2 47762  53.0542 315.8840 0001628  76.9804 283.1367 15.06410534104674,6925.316,95.591,548.309,546.054,0.0
47762,STARLINK-2180,PAYLOAD,2023-01-22 12:08:46,15.06405431,0.0001298,53.0533,314.0993,81.3296,278.784,0.00028862,4.021e-05,0.0,0 STARLINK-2180,1 47762U 21017AS  23022.50608821  .00004021  00000-0  28862-3 0  9992,2 47762  53.0533 314.0993 0001298  81.3296 278.7840 15.06405431104735,6925.331999999999,95.592,548.096,546.298,0.0
47762,STARLINK-2180,PAYLOAD,2023-01-22 21:42:00,15.06381059,0.0001291999999999,53.0524,312.3111,86.2132,273.9004,-0.00030216,-4.777e-05,0.0,0 STARLINK-2180,1 47762U 21017AS  23022.90417598 -.00004777  00000-0 -30216-3 0  9991,2 47762  53.0524 312.3111 0001292  86.2132 273.9004 15.06381059104799,6925.406999999999,95.593,548.1659999999999,546.377,0.0
47762,STARLINK-2180,PAYLOAD,2023-01-23 12:01:52,15.0639499,0.0001063,53.0504,309.6338,99.229,260.8819,0.00080108,0.00011669,0.0,0 STARLINK-2180,1 47762U 21017AS  23023.50130105  .00011669  00000-0  80108-3 0  9995,2 47762  53.0504 309.6338 0001063  99.2290 260.8819 15.06394990104889,6925.3640000000005,95.592,547.965,546.493,0.0
47762,STARLINK-2180,PAYLOAD,2023-01-24 03:57:15,15.06423828,0.0001027,53.0515,306.6531,94.9564,265.1542,0.001322,0.00019477,0.0,0 STARLINK-2180,1 47762U 21017AS  23024.16476383  .00019477  00000-0  13220-2 0  9994,2 47762  53.0515 306.6531 0001027  94.9564 265.1542 15.06423828104984,6925.276,95.591,547.852,546.429,0.0
47762,STARLINK-2180,PAYLOAD,2023-01-25 00:39:16,15.06406807,0.0001293,53.0517,302.7796,112.1618,247.9508,0.0012392,0.00018228,0.0,0 STARLINK-2180,1 47762U 21017AS  23025.02727606  .00018228  00000-0  12392-2 0  9999,2 47762  53.0517 302.7796 0001293 112.1618 247.9508 15.06406807105118,6925.328,95.592,548.0880000000001,546.297,0.0
47762,STARLINK-2180,PAYLOAD,2023-01-25 11:48:03,15.06403124,0.0001254,53.0518,300.6952,93.1017,267.0115,0.00056434,8.135e-05,0.0,0 STARLINK-2180,1 47762U 21017AS  23025.49170454  .00008135  00000-0  56434-3 0  9995,2 47762  53.0518 300.6952 0001254  93.1017 267.0115 15.06403124105181,6925.339,95.592,548.072,546.336,0.0
47762,STARLINK-2180,PAYLOAD,2023-01-26 03:43:26,15.06411699,0.0001501,53.0526,297.7137,102.7541,257.3615,0.00043374,6.187e-05,0.0,0 STARLINK-2180,1 47762U 21017AS  23026.15516907  .00006187  00000-0  43374-3 0  9990,2 47762  53.0526 297.7137 0001501 102.7541 257.3615 15.06411699105931,6925.313,95.591,548.217,546.138,0.0
47762,STARLINK-2180,PAYLOAD,2023-01-26 21:14:23,15.063985199999998,0.0001448,53.0524,294.4382,103.1859,256.9291,0.00014831,1.928e-05,0.0,0 STARLINK-2180,1 47762U 21017AS  23026.88498969  .00001928  00000-0  14831-3 0  9991,2 47762  53.0524 294.4382 0001448 103.1859 256.9291 15.06398520105394,6925.353,95.592,548.221,546.215,0.0
47762,STARLINK-2180,PAYLOAD,2023-01-27 03:36:32,15.06402957,0.0001363,53.052,293.2464,89.3988,270.7157,0.0002716,3.767e-05,0.0,0 STARLINK-2180,1 47762U 21017AS  23027.15037613  .00003767  00000-0  27160-3 0  9999,2 47762  53.0520 293.2464 0001363  89.3988 270.7157 15.06402957106084,6925.339,95.592,548.148,546.261,0.0
47762,STARLINK-2180,PAYLOAD,2023-01-27 21:07:28,15.06394092,0.0001426,53.0518,289.9684,86.2496,273.8656,6.8846e-05,7.44e-06,0.0,0 STARLINK-2180,1 47762U 21017AS  23027.88019612  .00000744  00000-0  68846-4 0  9997,2 47762  53.0518 289.9684 0001426  86.2496 273.8656 15.06394092106197,6925.366999999999,95.593,548.219,546.244,0.0
47762,STARLINK-2180,PAYLOAD,2023-01-28 01:54:05,15.06402553,0.0001308,53.052,289.0776,92.6536,267.4603,0.0001974,2.6600000000000003e-05,0.0,0 STARLINK-2180,1 47762U 21017AS  23028.07923246  .00002660  00000-0  19740-3 0  9993,2 47762  53.0520 289.0776 0001308  92.6536 267.4603 15.06402553105572,6925.340999999999,95.592,548.112,546.3,0.0
47762,STARLINK-2180,PAYLOAD,2023-01-28 17:49:29,15.0639828,0.0001252,53.0512,286.0997,90.0003,270.113,0.00014332,1.854e-05,0.0,0 STARLINK-2180,1 47762U 21017AS  23028.74270458  .00001854  00000-0  14332-3 0  9993,2 47762  53.0512 286.0997 0001252  90.0003 270.1130 15.06398280105672,6925.354,95.592,548.086,546.352,0.0
47762,STARLINK-2180,PAYLOAD,2023-01-28 21:00:34,15.06401014,0.0001249,53.0513,285.504,90.0879,270.0253,0.00020307,2.745e-05,0.0,0 STARLINK-2180,1 47762U 21017AS  23028.87539741  .00002745  00000-0  20307-3 0  9999,2 47762  53.0513 285.5040 0001249  90.0879 270.0253 15.06401014106343,6925.345,95.592,548.075,546.345,0.0
47762,STARLINK-2180,PAYLOAD,2023-01-29 01:47:11,15.06408256,0.0001243,53.0514,284.6103,92.2165,267.8966,0.00038206,5.415e-05,0.0,0 STARLINK-2180,1 47762U 21017AS  23029.07443547  .00005415  00000-0  38206-3 0  9994,2 47762  53.0514 284.6103 0001243  92.2165 267.8966 15.06408256105721,6925.323,95.592,548.049,546.327,0.0
47762,STARLINK-2180,PAYLOAD,2023-01-29 17:42:35,15.06397476,0.0001236,53.0511,281.6315,97.4148,262.6982,1.7792e-05,-1.6e-07,0.0,0 STARLINK-2180,1 47762U 21017AS  23029.73790632 -.00000016  00000-0  17792-4 0  9998,2 47762  53.0511 281.6315 0001236  97.4148 262.6982 15.06397476105823,6925.356,95.592,548.077,546.365,0.0
